SILVERSAT               
1 66909U 98067XV  26036.49864379  .00157730  00000+0  17283-2 0  9992
2 66909  51.6267 228.4511 0002555 211.2015 148.8828 15.62219668 10142
1998-067XW              
1 66910U 98067XW  26035.80699781  .00090282  00000+0  10583-2 0  9995
2 66910  51.6258 232.0768 0001037 199.7580 160.3373 15.60755016 10032
1998-067XX              
1 66911U 98067XX  26036.53518395  .00168295  00000+0  17605-2 0  9990
2 66911  51.6243 227.9379 0002356 237.6670 122.4097 15.63369304 10143
1998-067XY              
1 66912U 98067XY  26036.24759303  .00095558  00000+0  12332-2 0  9998
2 66912  51.6272 230.5253 0001587 147.2352 212.8739 15.58194839 10088
