CCSDS_OMM_VERS = 2.0
CREATION_DATE  = 
ORIGINATOR     = 

OBJECT_NAME    = SILVERSAT
OBJECT_ID      = 1998-067XV
CENTER_NAME    = EARTH
REF_FRAME      = TEME
TIME_SYSTEM    = UTC
MEAN_ELEMENT_THEORY = SGP/SGP4

EPOCH          = 2026-02-05T11:58:02.823456
MEAN_MOTION    = 15.62219668
ECCENTRICITY   = .0002555
INCLINATION    = 51.6267
RA_OF_ASC_NODE = 228.4511
ARG_OF_PERICENTER = 211.2015
MEAN_ANOMALY   = 148.8828

EPHEMERIS_TYPE = 0
CLASSIFICATION_TYPE = U
NORAD_CAT_ID   = 66909
ELEMENT_SET_NO = 999
REV_AT_EPOCH   = 1014
BSTAR          = .17283E-2
MEAN_MOTION_DOT = .15773E-2
MEAN_MOTION_DDOT = 0

CCSDS_OMM_VERS = 2.0
CREATION_DATE  = 
ORIGINATOR     = 

OBJECT_NAME    = 1998-067XW
OBJECT_ID      = 1998-067XW
CENTER_NAME    = EARTH
REF_FRAME      = TEME
TIME_SYSTEM    = UTC
MEAN_ELEMENT_THEORY = SGP/SGP4

EPOCH          = 2026-02-04T19:22:04.610784
MEAN_MOTION    = 15.60755016
ECCENTRICITY   = .0001037
INCLINATION    = 51.6258
RA_OF_ASC_NODE = 232.0768
ARG_OF_PERICENTER = 199.7580
MEAN_ANOMALY   = 160.3373

EPHEMERIS_TYPE = 0
CLASSIFICATION_TYPE = U
NORAD_CAT_ID   = 66910
ELEMENT_SET_NO = 999
REV_AT_EPOCH   = 1003
BSTAR          = .10582591E-2
MEAN_MOTION_DOT = .90282E-3
MEAN_MOTION_DDOT = 0

CCSDS_OMM_VERS = 2.0
CREATION_DATE  = 
ORIGINATOR     = 

OBJECT_NAME    = 1998-067XX
OBJECT_ID      = 1998-067XX
CENTER_NAME    = EARTH
REF_FRAME      = TEME
TIME_SYSTEM    = UTC
MEAN_ELEMENT_THEORY = SGP/SGP4

EPOCH          = 2026-02-05T12:50:39.893280
MEAN_MOTION    = 15.63369304
ECCENTRICITY   = .0002356
INCLINATION    = 51.6243
RA_OF_ASC_NODE = 227.9379
ARG_OF_PERICENTER = 237.6670
MEAN_ANOMALY   = 122.4097

EPHEMERIS_TYPE = 0
CLASSIFICATION_TYPE = U
NORAD_CAT_ID   = 66911
ELEMENT_SET_NO = 999
REV_AT_EPOCH   = 1014
BSTAR          = .17605E-2
MEAN_MOTION_DOT = .168295E-2
MEAN_MOTION_DDOT = 0

CCSDS_OMM_VERS = 2.0
CREATION_DATE  = 
ORIGINATOR     = 

OBJECT_NAME    = 1998-067XY
OBJECT_ID      = 1998-067XY
CENTER_NAME    = EARTH
REF_FRAME      = TEME
TIME_SYSTEM    = UTC
MEAN_ELEMENT_THEORY = SGP/SGP4

EPOCH          = 2026-02-05T05:56:32.037792
MEAN_MOTION    = 15.58194839
ECCENTRICITY   = .0001587
INCLINATION    = 51.6272
RA_OF_ASC_NODE = 230.5253
ARG_OF_PERICENTER = 147.2352
MEAN_ANOMALY   = 212.8739

EPHEMERIS_TYPE = 0
CLASSIFICATION_TYPE = U
NORAD_CAT_ID   = 66912
ELEMENT_SET_NO = 999
REV_AT_EPOCH   = 1008
BSTAR          = .12332E-2
MEAN_MOTION_DOT = .95558E-3
MEAN_MOTION_DDOT = 0

